{
  "type": "FeatureCollection",
  "schema": "bgwf-mgu-pernik-concessions-v1",
  "generatedAt": "2026-10-05T11:51:39Z",
  "source": "MGU-PERNIK-CONCESSIONS",
  "sourceUrl": "https://maps.mgu.bg/arcgis/rest/services/Hosted/Concessions_Pernik/FeatureServer/0",
  "geometryCrs": "EPSG:4326",
  "featureCount": 19,
  "digest": "15f86b8918cb339abaf923cc758a0059b49f16bcc307c055c26904405bd8d2ea",
  "policy": {
    "runtimeRemoteDependency": false,
    "preserveLastKnownGoodOnFailure": true
  },
  "features": [
    {
      "geometry": {
        "type": "Polygon",
        "coordinates": [
          [
            [
              23.040328847313436,
              42.50470444083507
            ],
            [
              23.039832630022595,
              42.506496084471046
            ],
            [
              23.038395960605477,
              42.50786600965261
            ],
            [
              23.03665987777355,
              42.50783505038519
            ],
            [
              23.03557171028211,
              42.50650268490151
            ],
            [
              23.034844777691102,
              42.50459625576777
            ],
            [
              23.03483852997053,
              42.50362577826765
            ],
            [
              23.040349985630414,
              42.50361612673676
            ],
            [
              23.040328847313436,
              42.50470444083507
            ]
          ]
        ],
        "crs": null
      },
      "id": 11,
      "type": "Feature",
      "properties": {
        "вид_на_подземното_богатство": "Доломити",
        "con_subject": "Концесия за добив на подземни богатства",
        "validityend": 1896393600000,
        "globalid": "{3F2CE71D-C1F1-48E3-BAE3-8906E0578E10}",
        "effectivedate": 1107475200000,
        "област": "Перник",
        "община": "Радомир",
        "con_type": "Държавна",
        "concession_id": "D-000329",
        "ncr_url": "https://nkr.government.bg/ConcessionaireProcedures/ConcessionaireProcedureInfo/6c150bcf-3da7-47ec-b929-02c21593e37d",
        "SHAPE__Area": 170864.60070495,
        "решение_на__министерски____общи": "1017/22.12.2004 г.",
        "идентификационен_____партиден__": "D-000329",
        "срок_на_концесията": "25 г.",
        "eu_threshold": "Не е приложимо",
        "концесионер": "“Алпа-2000” ООД, гр. София",
        "находище": "Дебела могила",
        "validityendnote": null,
        "група_подземно_богатство": "Строителни материали",
        "contractdate": 1107475200000,
        "name": "Концесия за добив от находище \"Дебела могила\", област Перник, община Радомир, населено място Стефаново",
        "legalauthority": "Министерски съвет",
        "effective_date_note": null,
        "lastupdate": 1757289600000,
        "SHAPE__Length": 1613.0850660353415,
        "objectid": 11,
        "status": "Открита",
        "source_kind": "MGU-concession-contract-geometry",
        "source_url": "https://maps.mgu.bg/arcgis/rest/services/Hosted/Concessions_Pernik/FeatureServer/0",
        "geometry_status": "repository-cache-mgu-pernik"
      }
    },
    {
      "geometry": {
        "type": "Polygon",
        "coordinates": [
          [
            [
              22.590170958623293,
              42.826346638791755
            ],
            [
              22.590045870504294,
              42.82785355907153
            ],
            [
              22.585806306277004,
              42.82827409869358
            ],
            [
              22.58578324601853,
              42.82678772279115
            ],
            [
              22.586960156493884,
              42.82528116883247
            ],
            [
              22.59114223618654,
              42.82428945403634
            ],
            [
              22.590170958623293,
              42.826346638791755
            ]
          ]
        ],
        "crs": null
      },
      "id": 8,
      "type": "Feature",
      "properties": {
        "вид_на_подземното_богатство": "Глини",
        "con_subject": "Концесия за добив на подземни богатства",
        "validityend": 1990137600000,
        "globalid": "{881315F2-1096-423F-87BE-63AB2EF7A870}",
        "effectivedate": 1201132800000,
        "област": "Перник",
        "община": "Трън",
        "con_type": "Държавна",
        "concession_id": "D-000451",
        "ncr_url": "https://nkr.government.bg/ConcessionaireProcedures/ConcessionaireProcedureInfo/045086eb-fbd2-4f27-bb09-63fc6c4d99dc",
        "SHAPE__Area": 120795.89311885,
        "решение_на__министерски____общи": "859/21.12.2007 г.",
        "идентификационен_____партиден__": "D-000451",
        "срок_на_концесията": "25 г.",
        "eu_threshold": "Не е приложимо",
        "концесионер": "“Тера” ООД, гр. София",
        "находище": "Забел",
        "validityendnote": null,
        "група_подземно_богатство": "Строителни материали",
        "contractdate": 1201132800000,
        "name": "Концесия за добив от находище \"Забел\", област Перник, община Трън, населено място Забел",
        "legalauthority": "Министерски съвет",
        "effective_date_note": null,
        "lastupdate": 1757289600000,
        "SHAPE__Length": 1476.8300357425842,
        "objectid": 8,
        "status": "Открита",
        "source_kind": "MGU-concession-contract-geometry",
        "source_url": "https://maps.mgu.bg/arcgis/rest/services/Hosted/Concessions_Pernik/FeatureServer/0",
        "geometry_status": "repository-cache-mgu-pernik"
      }
    },
    {
      "geometry": {
        "type": "Polygon",
        "coordinates": [
          [
            [
              23.110373764176973,
              42.52263258176726
            ],
            [
              23.109758511671714,
              42.52296105559594
            ],
            [
              23.108760587742193,
              42.52339409837239
            ],
            [
              23.107533251098136,
              42.523489992122755
            ],
            [
              23.106966124376846,
              42.52294223304488
            ],
            [
              23.10654473783011,
              42.521418525021154
            ],
            [
              23.107230468842186,
              42.52055295993474
            ],
            [
              23.107611662023924,
              42.520359198590064
            ],
            [
              23.109057878712537,
              42.520077850398366
            ],
            [
              23.110218111939176,
              42.51845485012977
            ],
            [
              23.113134877972712,
              42.517793509725216
            ],
            [
              23.113583629932894,
              42.51996820599189
            ],
            [
              23.113939374764012,
              42.52169207755745
            ],
            [
              23.114885678401627,
              42.521748762301
            ],
            [
              23.114885471021058,
              42.52174896421852
            ],
            [
              23.114046103665352,
              42.52256432538211
            ],
            [
              23.11322718554342,
              42.5225193014668
            ],
            [
              23.1114651340813,
              42.521952001196034
            ],
            [
              23.110373764176973,
              42.52263258176726
            ]
          ]
        ],
        "crs": null
      },
      "id": 19,
      "type": "Feature",
      "properties": {
        "вид_на_подземното_богатство": "Доломити",
        "con_subject": "Концесия за добив на подземни богатства",
        "validityend": null,
        "globalid": "{D8768C88-C247-4186-B819-8F2C0343C00A}",
        "effectivedate": null,
        "област": "Перник",
        "община": "Перник",
        "con_type": "Държавна",
        "concession_id": "216-127",
        "ncr_url": "https://nkr.government.bg/ConcessionaireProcedures/ConcessionaireProcedureInfo/f198dc0b-2595-4aae-8b61-bddac9f3936a",
        "SHAPE__Area": 236635.426508,
        "решение_на__министерски____общи": "114/12.02.2021 г.",
        "идентификационен_____партиден__": "216-127",
        "срок_на_концесията": "35 г.",
        "eu_threshold": "Не е приложимо",
        "концесионер": "\"Щрабаг\" ЕАД, гр. София",
        "находище": "Пери-2, у-ци \"Запад\" и \"Изток\"",
        "validityendnote": "Съгласно договора и срока на концесията",
        "група_подземно_богатство": "Строителни материали",
        "contractdate": 1626307200000,
        "name": "Концесия за добив с предмет – експлоатация на подземни богатства по чл. 2, ал. 1, т. 5 от Закона за подземните богатства (ЗПБ) – строителни материали – доломити, от находище „Пери-2“, участъци „Запад“ и „Изток“, разположено в землището на с. Студена, общи",
        "legalauthority": "Министерски съвет",
        "effective_date_note": "Съгласно договора",
        "lastupdate": 1757289600000,
        "SHAPE__Length": 2207.6976810974734,
        "objectid": 19,
        "status": "Открита",
        "source_kind": "MGU-concession-contract-geometry",
        "source_url": "https://maps.mgu.bg/arcgis/rest/services/Hosted/Concessions_Pernik/FeatureServer/0",
        "geometry_status": "repository-cache-mgu-pernik"
      }
    },
    {
      "geometry": {
        "type": "Polygon",
        "coordinates": [
          [
            [
              23.123406557389146,
              42.50516008102005
            ],
            [
              23.1225833574021,
              42.50376080067428
            ],
            [
              23.12169884383491,
              42.50324628701816
            ],
            [
              23.120507178812346,
              42.502083706071616
            ],
            [
              23.120454191452424,
              42.50196923848001
            ],
            [
              23.120511936842885,
              42.501851457794416
            ],
            [
              23.122534448092704,
              42.49889399975536
            ],
            [
              23.12295988134987,
              42.498710550037536
            ],
            [
              23.123404554056098,
              42.49883592351848
            ],
            [
              23.130353432193676,
              42.5033637235459
            ],
            [
              23.130473294224416,
              42.503757429285784
            ],
            [
              23.12969444823046,
              42.504330728135685
            ],
            [
              23.128324883628355,
              42.50398339211563
            ],
            [
              23.125681470715616,
              42.50547468285863
            ],
            [
              23.12531066895156,
              42.50646038872039
            ],
            [
              23.124942996374052,
              42.506509863011956
            ],
            [
              23.124788855911945,
              42.50642845542524
            ],
            [
              23.123406557389146,
              42.50516008102005
            ]
          ]
        ],
        "crs": null
      },
      "id": 4,
      "type": "Feature",
      "properties": {
        "вид_на_подземното_богатство": "Доломити",
        "con_subject": "Концесия за добив на подземни богатства",
        "validityend": 2017180800000,
        "globalid": "{98B35893-A94D-4C19-901F-733E14AA7FB8}",
        "effectivedate": 1228262400000,
        "област": "Перник",
        "община": "Перник",
        "con_type": "Държавна",
        "concession_id": "D-000501",
        "ncr_url": "https://nkr.government.bg/ConcessionaireProcedures/ConcessionaireProcedureInfo/45748810-856b-46c1-9cab-c32663fd6daf",
        "SHAPE__Area": 338905.81628525,
        "решение_на__министерски____общи": "671/29.10.2008 г.",
        "идентификационен_____партиден__": "D-000501",
        "срок_на_концесията": "25 г.",
        "eu_threshold": "Не е приложимо",
        "концесионер": "“Хидробетон” ООД, с. Казичене, обл. София",
        "находище": "Студена, у-к Хидростой 2",
        "validityendnote": null,
        "група_подземно_богатство": "Строителни материали",
        "contractdate": 1228262400000,
        "name": "Концесия за добив от находище \"Студена\", участък \"Хидрострой 2\", област Перник, община Перник, населено място Студен",
        "legalauthority": "Министерски съвет",
        "effective_date_note": null,
        "lastupdate": 1757289600000,
        "SHAPE__Length": 2528.4116903505887,
        "objectid": 4,
        "status": "Открита",
        "source_kind": "MGU-concession-contract-geometry",
        "source_url": "https://maps.mgu.bg/arcgis/rest/services/Hosted/Concessions_Pernik/FeatureServer/0",
        "geometry_status": "repository-cache-mgu-pernik"
      }
    },
    {
      "geometry": {
        "type": "Polygon",
        "coordinates": [
          [
            [
              23.126345392170606,
              42.509525288494416
            ],
            [
              23.126969280007234,
              42.5104388889852
            ],
            [
              23.12680491945552,
              42.510728181969384
            ],
            [
              23.125919378024932,
              42.51093494121783
            ],
            [
              23.125822395803166,
              42.51127696955497
            ],
            [
              23.125983011291062,
              42.51195218379504
            ],
            [
              23.126812302498593,
              42.51200904284308
            ],
            [
              23.126731880479447,
              42.51226765651896
            ],
            [
              23.123152724884513,
              42.5120149171447
            ],
            [
              23.12074168688551,
              42.51187286148861
            ],
            [
              23.119797987577154,
              42.51130381211517
            ],
            [
              23.120374834074944,
              42.5089732645261
            ],
            [
              23.121834786279678,
              42.50806610223919
            ],
            [
              23.123511195442944,
              42.50745163031542
            ],
            [
              23.126345392170606,
              42.509525288494416
            ]
          ]
        ],
        "crs": null
      },
      "id": 14,
      "type": "Feature",
      "properties": {
        "вид_на_подземното_богатство": "Доломитизирани варовици и доломити",
        "con_subject": "Концесия за добив на подземни богатства",
        "validityend": 2530310400000,
        "globalid": "{3068F18E-FC40-4C0E-A9DF-52A43CA1F884}",
        "effectivedate": 952473600000,
        "област": "Перник",
        "община": "Перник",
        "con_type": "Държавна",
        "concession_id": "D-000282",
        "ncr_url": "https://nkr.government.bg/ConcessionaireProcedures/ConcessionaireProcedureInfo/b9bdbd1e-5793-4a6e-8448-1b43322df881",
        "SHAPE__Area": 211711.397465,
        "решение_на__министерски____общи": "888/10.11.2004 г.",
        "идентификационен_____партиден__": "D-000282",
        "срок_на_концесията": "25 г. + 25 г.",
        "eu_threshold": "Не е приложимо",
        "концесионер": "\"Витез Проспект\" АД, гр. София ",
        "находище": "Студена - участък ІІІ",
        "validityendnote": null,
        "група_подземно_богатство": "Строителни материали",
        "contractdate": 1103587200000,
        "name": "Концесия за добив от находище \"Студена - участък III\", област Перник, община Перник, населено място Студена",
        "legalauthority": "Министерски съвет",
        "effective_date_note": null,
        "lastupdate": 1757289600000,
        "SHAPE__Length": 1933.2110559499004,
        "objectid": 14,
        "status": "Открита",
        "source_kind": "MGU-concession-contract-geometry",
        "source_url": "https://maps.mgu.bg/arcgis/rest/services/Hosted/Concessions_Pernik/FeatureServer/0",
        "geometry_status": "repository-cache-mgu-pernik"
      }
    },
    {
      "geometry": {
        "type": "Polygon",
        "coordinates": [
          [
            [
              23.116971701105967,
              42.51682662818732
            ],
            [
              23.11787641219895,
              42.51823965977457
            ],
            [
              23.11923721004913,
              42.51997345797725
            ],
            [
              23.11942402130662,
              42.521638471697756
            ],
            [
              23.117981690987875,
              42.521933586441904
            ],
            [
              23.114885471021058,
              42.52174896421852
            ],
            [
              23.113938785271507,
              42.521692497554206
            ],
            [
              23.113583629932894,
              42.51996820599189
            ],
            [
              23.112912705118323,
              42.51671059261486
            ],
            [
              23.116971701105967,
              42.51682662818732
            ]
          ]
        ],
        "crs": null
      },
      "id": 3,
      "type": "Feature",
      "properties": {
        "вид_на_подземното_богатство": "Доломити",
        "con_subject": "Концесия за добив на подземни богатства",
        "validityend": 2024611200000,
        "globalid": "{C98EB35C-DFC4-4368-BCC6-2A7BAEE3BE81}",
        "effectivedate": 1235692800000,
        "област": "Перник",
        "община": "Перник",
        "con_type": "Държавна",
        "concession_id": "D-000505",
        "ncr_url": "https://nkr.government.bg/ConcessionaireProcedures/ConcessionaireProcedureInfo/afb002bb-3cb0-4bd8-ba9e-6dc83f7d7b8e",
        "SHAPE__Area": 232737.0454729,
        "решение_на__министерски____общи": "870/30.12.2008 г.",
        "идентификационен_____партиден__": "D-000505",
        "срок_на_концесията": "25 г.",
        "eu_threshold": "Не е приложимо",
        "концесионер": "\"Щрабаг\" ЕАД, гр. София",
        "находище": "Пери",
        "validityendnote": null,
        "група_подземно_богатство": "Строителни материали",
        "contractdate": 1235692800000,
        "name": "Концесия за добив от находище \"Пери\", област Перник, община Перник, населено място Студена",
        "legalauthority": "Министерски съвет",
        "effective_date_note": null,
        "lastupdate": 1757289600000,
        "SHAPE__Length": 1931.7040845328593,
        "objectid": 3,
        "status": "Открита",
        "source_kind": "MGU-concession-contract-geometry",
        "source_url": "https://maps.mgu.bg/arcgis/rest/services/Hosted/Concessions_Pernik/FeatureServer/0",
        "geometry_status": "repository-cache-mgu-pernik"
      }
    },
    {
      "geometry": {
        "type": "Polygon",
        "coordinates": [
          [
            [
              22.752622949914972,
              42.62159713648955
            ],
            [
              22.75117422189565,
              42.622114491810386
            ],
            [
              22.751905356596154,
              42.62225195089604
            ],
            [
              22.752009702755664,
              42.622297566417714
            ],
            [
              22.751051351245803,
              42.622550392149414
            ],
            [
              22.74981229802349,
              42.62249009355841
            ],
            [
              22.74975585869151,
              42.62240964263589
            ],
            [
              22.750050250188103,
              42.62189371791647
            ],
            [
              22.75038138348364,
              42.6218182211329
            ],
            [
              22.752276375045216,
              42.6212890560286
            ],
            [
              22.753203066017296,
              42.621146765574906
            ],
            [
              22.753922069719632,
              42.62093216212586
            ],
            [
              22.75447961056281,
              42.62077063436059
            ],
            [
              22.754487911954403,
              42.62079319000863
            ],
            [
              22.754578027419747,
              42.62103226585541
            ],
            [
              22.75459698608782,
              42.62108368481806
            ],
            [
              22.75462902026109,
              42.62116669131757
            ],
            [
              22.754644433484955,
              42.621207297345855
            ],
            [
              22.754688306327896,
              42.621323672181184
            ],
            [
              22.75476654943226,
              42.62153298163935
            ],
            [
              22.754194794617913,
              42.62165481634645
            ],
            [
              22.75345790559818,
              42.62182971091873
            ],
            [
              22.753121776017213,
              42.62191689632981
            ],
            [
              22.75299285500605,
              42.62165868365348
            ],
            [
              22.752951348589363,
              42.62154951682584
            ],
            [
              22.7529442424083,
              42.621530574714434
            ],
            [
              22.752622949914972,
              42.62159713648955
            ]
          ]
        ],
        "crs": null
      },
      "id": 17,
      "type": "Feature",
      "properties": {
        "вид_на_подземното_богатство": "Огнеупорни и керамични глини",
        "con_subject": "Концесия за добив на подземни богатства",
        "validityend": 2183328000000,
        "globalid": "{875493AA-3DCF-42DE-9F32-C5A75D379C37}",
        "effectivedate": 1078876800000,
        "област": "Перник",
        "община": "Земен",
        "con_type": "Държавна",
        "concession_id": "D-000232",
        "ncr_url": "https://nkr.government.bg/ConcessionaireProcedures/ConcessionaireProcedureInfo/5e6923a1-e731-459c-8d05-2ffff7bb0813",
        "SHAPE__Area": 29168.38961895,
        "решение_на__министерски____общи": "53/27.01.2004 г.",
        "идентификационен_____партиден__": "D-000232",
        "срок_на_концесията": "35 г.",
        "eu_threshold": "Не е приложимо",
        "концесионер": "\"Глинохум\" ЕООД, гр. Перник",
        "находище": "Елов дол - Запад",
        "validityendnote": null,
        "група_подземно_богатство": "Неметални полезни изкопаеми - индустриални минерали",
        "contractdate": 1078876800000,
        "name": "Концесия за добив от находище \"Елов дол - запад\", област Перник, община Земен, населено място Еловдол",
        "legalauthority": "Министерски съвет",
        "effective_date_note": null,
        "lastupdate": 1757289600000,
        "SHAPE__Length": 1148.6147604330056,
        "objectid": 17,
        "status": "Открита",
        "source_kind": "MGU-concession-contract-geometry",
        "source_url": "https://maps.mgu.bg/arcgis/rest/services/Hosted/Concessions_Pernik/FeatureServer/0",
        "geometry_status": "repository-cache-mgu-pernik"
      }
    },
    {
      "geometry": {
        "type": "Polygon",
        "coordinates": [
          [
            [
              22.99602872385448,
              42.60267532420772
            ],
            [
              23.007937232140442,
              42.60405970539779
            ],
            [
              23.00176666808085,
              42.623131123139245
            ],
            [
              22.97448690652236,
              42.617871007414664
            ],
            [
              22.95743590007584,
              42.616093628704846
            ],
            [
              22.954993720952157,
              42.613401178028084
            ],
            [
              22.95498757344282,
              42.611203380481484
            ],
            [
              22.954973601874457,
              42.60620835092752
            ],
            [
              22.973929962374022,
              42.59493128444707
            ],
            [
              22.99602872385448,
              42.60267532420772
            ]
          ]
        ],
        "crs": null
      },
      "id": 13,
      "type": "Feature",
      "properties": {
        "вид_на_подземното_богатство": "Въглища",
        "con_subject": "Концесия за добив на подземни богатства",
        "validityend": 2120947200000,
        "globalid": "{E80AECA8-0265-4399-AF3A-FA13E6095A75}",
        "effectivedate": 1016409600000,
        "област": "Перник",
        "община": "Перник",
        "con_type": "Държавна",
        "concession_id": "D-000318",
        "ncr_url": "https://nkr.government.bg/ConcessionaireProcedures/ConcessionaireProcedureInfo/c4c86729-088b-41f0-a0a3-3a8d6c094663",
        "SHAPE__Area": 8607910.39059075,
        "решение_на__министерски____общи": "481/29.06.2001 г.",
        "идентификационен_____партиден__": "D-000318",
        "срок_на_концесията": "35 г.",
        "eu_threshold": "Не е приложимо",
        "концесионер": "\"Комет инвест\" ООД, с. Одраница, обл. Перник",
        "находище": "Пернишки въглищен басейн,  у-к „Бела вода”",
        "validityendnote": null,
        "група_подземно_богатство": "Твърди горива",
        "contractdate": 1017619200000,
        "name": "Концесия за добив от Участък \"Бела вода\" на находище \"Пернишки въглищен басейн\", област Перник, област Перник, община Перник, населено място Перник",
        "legalauthority": "Министерски съвет",
        "effective_date_note": null,
        "lastupdate": 1757289600000,
        "SHAPE__Length": 12056.290783751392,
        "objectid": 13,
        "status": "Открита",
        "source_kind": "MGU-concession-contract-geometry",
        "source_url": "https://maps.mgu.bg/arcgis/rest/services/Hosted/Concessions_Pernik/FeatureServer/0",
        "geometry_status": "repository-cache-mgu-pernik"
      }
    },
    {
      "geometry": {
        "type": "Polygon",
        "coordinates": [
          [
            [
              22.733987419379986,
              42.49172079691363
            ],
            [
              22.7315281899427,
              42.494136835755214
            ],
            [
              22.730553586483712,
              42.49426605491522
            ],
            [
              22.725638492778586,
              42.49320124406667
            ],
            [
              22.725765084793892,
              42.492751871696385
            ],
            [
              22.727173309164968,
              42.49190509555642
            ],
            [
              22.72754709893568,
              42.49109711025387
            ],
            [
              22.728526587816514,
              42.49051781362878
            ],
            [
              22.73041487439548,
              42.490259052539166
            ],
            [
              22.733987419379986,
              42.49172079691363
            ]
          ]
        ],
        "crs": null
      },
      "id": 10,
      "type": "Feature",
      "properties": {
        "вид_на_подземното_богатство": "Варовици",
        "con_subject": "Концесия за добив на подземни богатства",
        "validityend": 2115763200000,
        "globalid": "{FFB34A60-2BAD-4E80-B7BF-30FB21E6AD6A}",
        "effectivedate": 853459200000,
        "област": "Перник",
        "община": "Земен",
        "con_type": "Държавна",
        "concession_id": "D-000366",
        "ncr_url": "https://nkr.government.bg/ConcessionaireProcedures/ConcessionaireProcedureInfo/dfca8e0f-6a2c-4ff1-9cce-6ed2b9d86e55",
        "SHAPE__Area": 186003.5914563,
        "решение_на__министерски____общи": "878/18.12.2006 г.",
        "идентификационен_____партиден__": "D-000366",
        "срок_на_концесията": "25 г. + 15 г.",
        "eu_threshold": "Не е приложимо",
        "концесионер": "\"Кариери и вародобив\" АД, гр. Земен",
        "находище": "Земен, уч. Турско усое",
        "validityendnote": null,
        "група_подземно_богатство": "Строителни материали",
        "contractdate": 1171238400000,
        "name": "Концесия за добив от находище \"Земен\", участък \"Турско усое\", област Перник, община Земен, населено място Земен",
        "legalauthority": "Министерски съвет",
        "effective_date_note": null,
        "lastupdate": 1757289600000,
        "SHAPE__Length": 1729.8838860165104,
        "objectid": 10,
        "status": "Открита",
        "source_kind": "MGU-concession-contract-geometry",
        "source_url": "https://maps.mgu.bg/arcgis/rest/services/Hosted/Concessions_Pernik/FeatureServer/0",
        "geometry_status": "repository-cache-mgu-pernik"
      }
    },
    {
      "geometry": {
        "type": "Polygon",
        "coordinates": [
          [
            [
              23.127880393700256,
              42.505405899089865
            ],
            [
              23.128473926227404,
              42.50543584812116
            ],
            [
              23.12923674027506,
              42.50568227345388
            ],
            [
              23.12899032589829,
              42.506167952566294
            ],
            [
              23.128676783261792,
              42.5065123145037
            ],
            [
              23.12838072202921,
              42.50686482010699
            ],
            [
              23.12802901208433,
              42.50714588363824
            ],
            [
              23.12779539546822,
              42.5072530536859
            ],
            [
              23.127411359057717,
              42.50736641166065
            ],
            [
              23.12661881141559,
              42.507469101708956
            ],
            [
              23.12593619134041,
              42.50750419046998
            ],
            [
              23.125337576978982,
              42.506849988208565
            ],
            [
              23.125748628007532,
              42.5055291354503
            ],
            [
              23.12661233253747,
              42.50508724574117
            ],
            [
              23.127880393700256,
              42.505405899089865
            ]
          ]
        ],
        "crs": null
      },
      "id": 9,
      "type": "Feature",
      "properties": {
        "вид_на_подземното_богатство": "Доломити и доломитни варовици",
        "con_subject": "Концесия за добив на подземни богатства",
        "validityend": 1710460800000,
        "globalid": "{6F6123B8-CD68-447B-83AD-D4D968344C9B}",
        "effectivedate": 921456000000,
        "област": "Перник",
        "община": "Перник",
        "con_type": "Държавна",
        "concession_id": "D-000439",
        "ncr_url": "https://nkr.government.bg/ConcessionaireProcedures/ConcessionaireProcedureInfo/58bd122c-d827-4a32-a610-f3251210c860",
        "SHAPE__Area": 58671.044788655,
        "решение_на__министерски____общи": "641/04.10.2007 г.",
        "идентификационен_____партиден__": "D-000439",
        "срок_на_концесията": "25 г.",
        "eu_threshold": "Не е приложимо",
        "концесионер": "\"Главно управление строителство и възстановяване\" ЕАД, гр. София",
        "находище": "Студена - кариера ГУСВ",
        "validityendnote": null,
        "група_подземно_богатство": "Строителни материали",
        "contractdate": 1194220800000,
        "name": "Концесия за добив от находище \"Студена - кариера ГУСВ\", област Перник, община Перник, населено място Студена",
        "legalauthority": "Министерски съвет",
        "effective_date_note": null,
        "lastupdate": 1757289600000,
        "SHAPE__Length": 923.298380554593,
        "objectid": 9,
        "status": "Открита",
        "source_kind": "MGU-concession-contract-geometry",
        "source_url": "https://maps.mgu.bg/arcgis/rest/services/Hosted/Concessions_Pernik/FeatureServer/0",
        "geometry_status": "repository-cache-mgu-pernik"
      }
    },
    {
      "geometry": {
        "type": "Polygon",
        "coordinates": [
          [
            [
              23.096873194764736,
              42.52454902493925
            ],
            [
              23.09542952158797,
              42.52497970181058
            ],
            [
              23.090510823544967,
              42.52282556939809
            ],
            [
              23.095809454086233,
              42.51831283578083
            ],
            [
              23.099622405775587,
              42.52043370209609
            ],
            [
              23.09992711195303,
              42.520559772169754
            ],
            [
              23.100009415223496,
              42.521683488726126
            ],
            [
              23.098963903100387,
              42.52125081883837
            ],
            [
              23.096873194764736,
              42.52454902493925
            ]
          ]
        ],
        "crs": null
      },
      "id": 7,
      "type": "Feature",
      "properties": {
        "вид_на_подземното_богатство": "Доломити",
        "con_subject": "Концесия за добив на подземни богатства",
        "validityend": 2229206400000,
        "globalid": "{37E62DC6-6725-400D-9C69-D54A2FF67BCD}",
        "effectivedate": 1124668800000,
        "област": "Перник",
        "община": "Перник, Радомир",
        "con_type": "Държавна",
        "concession_id": "D-000454",
        "ncr_url": "https://nkr.government.bg/ConcessionaireProcedures/ConcessionaireProcedureInfo/8b2967f4-a6f0-4ec8-a1a6-4f39ce272850",
        "SHAPE__Area": 299358.57078405,
        "решение_на__министерски____общи": "656/13.07.2005 г.",
        "идентификационен_____партиден__": "D-000454",
        "срок_на_концесията": "35 г.",
        "eu_threshold": "Не е приложимо",
        "концесионер": "\"Доломит\" ЕООД, гр. Сливница",
        "находище": "Шумнатица",
        "validityendnote": null,
        "група_подземно_богатство": "Строителни материали",
        "contractdate": 1124668800000,
        "name": "Концесия за добив от находище\"Шумнатица\", област Перник, община Перник, населено място Студена",
        "legalauthority": "Министерски съвет",
        "effective_date_note": null,
        "lastupdate": 1757289600000,
        "SHAPE__Length": 2310.2240658454916,
        "objectid": 7,
        "status": "Открита",
        "source_kind": "MGU-concession-contract-geometry",
        "source_url": "https://maps.mgu.bg/arcgis/rest/services/Hosted/Concessions_Pernik/FeatureServer/0",
        "geometry_status": "repository-cache-mgu-pernik"
      }
    },
    {
      "geometry": {
        "type": "Polygon",
        "coordinates": [
          [
            [
              22.927972865615075,
              42.723948014760396
            ],
            [
              22.925047948176058,
              42.72731307037166
            ],
            [
              22.922335208012225,
              42.7277380313521
            ],
            [
              22.91853435110293,
              42.72787827095446
            ],
            [
              22.91586386232039,
              42.72805121298869
            ],
            [
              22.913108016432314,
              42.72881424271507
            ],
            [
              22.901947090715506,
              42.730396889046155
            ],
            [
              22.899062359479196,
              42.730471259238385
            ],
            [
              22.898888066381886,
              42.72984214404273
            ],
            [
              22.905763350564694,
              42.72241569688348
            ],
            [
              22.903510720077637,
              42.72019299353953
            ],
            [
              22.90161448252596,
              42.71725798553778
            ],
            [
              22.902592429020082,
              42.7162073359835
            ],
            [
              22.910121829654145,
              42.71594637708218
            ],
            [
              22.912391779010846,
              42.7190602266571
            ],
            [
              22.913247150703434,
              42.7204790758382
            ],
            [
              22.927859043953525,
              42.72023334072101
            ],
            [
              22.927972865615075,
              42.723948014760396
            ]
          ]
        ],
        "crs": null
      },
      "id": 1,
      "type": "Feature",
      "properties": {
        "вид_на_подземното_богатство": "Златно-сребърни руди",
        "con_subject": "Концесия за добив на подземни богатства",
        "validityend": 2085436800000,
        "globalid": "{80A80C3E-63EB-4B01-88A7-84A961CCBDB1}",
        "effectivedate": 1454284800000,
        "област": "Перник",
        "община": "Брезник",
        "con_type": "Държавна",
        "concession_id": "D-000700",
        "ncr_url": "https://nkr.government.bg/ConcessionaireProcedures/ConcessionaireProcedureInfo/b8b4bff4-ad72-4f75-b0ac-3a4bf486aa8a",
        "SHAPE__Area": 2198702.5499762,
        "решение_на__министерски____общи": "637/21.08.2015 г.",
        "идентификационен_____партиден__": "D-000700",
        "срок_на_концесията": "20 г.",
        "eu_threshold": "Не е приложимо",
        "концесионер": "\"Трейс Рисорсиз\" ЕООД, гр. София",
        "находище": "Милин камък",
        "validityendnote": null,
        "група_подземно_богатство": "Метални полезни изкопаеми",
        "contractdate": 1453766400000,
        "name": "Концесия за добив от находище \"Милин камък\", област Перник, община Брезник, населено място Брезник",
        "legalauthority": "Министерски съвет",
        "effective_date_note": null,
        "lastupdate": 1757289600000,
        "SHAPE__Length": 7283.867947766156,
        "objectid": 1,
        "status": "Открита",
        "source_kind": "MGU-concession-contract-geometry",
        "source_url": "https://maps.mgu.bg/arcgis/rest/services/Hosted/Concessions_Pernik/FeatureServer/0",
        "geometry_status": "repository-cache-mgu-pernik"
      }
    },
    {
      "geometry": {
        "type": "Polygon",
        "coordinates": [
          [
            [
              23.132044705455666,
              42.506274812759116
            ],
            [
              23.133379231075242,
              42.50980704533435
            ],
            [
              23.133195913460444,
              42.509986634892805
            ],
            [
              23.132465171384457,
              42.510137857858524
            ],
            [
              23.130360064607057,
              42.51015961349773
            ],
            [
              23.129385047111974,
              42.51050825783023
            ],
            [
              23.128739335347316,
              42.51068668283965
            ],
            [
              23.12783831223792,
              42.51081944525342
            ],
            [
              23.12741627573162,
              42.50999015423219
            ],
            [
              23.128966136465394,
              42.508994814232366
            ],
            [
              23.127732765669656,
              42.50732626283044
            ],
            [
              23.130970095086912,
              42.50603332173339
            ],
            [
              23.131741681838093,
              42.50602199010297
            ],
            [
              23.132044705455666,
              42.506274812759116
            ]
          ]
        ],
        "crs": null
      },
      "id": 5,
      "type": "Feature",
      "properties": {
        "вид_на_подземното_богатство": "Доломити",
        "con_subject": "Концесия за добив на подземни богатства",
        "validityend": 2009923200000,
        "globalid": "{4412863C-8A74-4CA2-8AC5-E153ABFDCB7A}",
        "effectivedate": 1221004800000,
        "област": "Перник",
        "община": "Перник",
        "con_type": "Държавна",
        "concession_id": "D-000484",
        "ncr_url": "https://nkr.government.bg/ConcessionaireProcedures/ConcessionaireProcedureInfo/bf6e7a20-aa49-4482-b470-3b58245159dc",
        "SHAPE__Area": 164435.612757715,
        "решение_на__министерски____общи": "514/05.08.2008 г.",
        "идентификационен_____партиден__": "D-000484",
        "срок_на_концесията": "25 г.",
        "eu_threshold": "Не е приложимо",
        "концесионер": "“ДЛВ-СИ” ООД, гр. Перник",
        "находище": "Студена, Заводски строежи 2",
        "validityendnote": null,
        "група_подземно_богатство": "Строителни материали",
        "contractdate": 1221004800000,
        "name": "Концесия за добив от находище \"Студена\", участък \"Заводски строежи 2\", област Перник, община Перник, населено място Перник",
        "legalauthority": "Министерски съвет",
        "effective_date_note": null,
        "lastupdate": 1757289600000,
        "SHAPE__Length": 1770.5359590517608,
        "objectid": 5,
        "status": "Открита",
        "source_kind": "MGU-concession-contract-geometry",
        "source_url": "https://maps.mgu.bg/arcgis/rest/services/Hosted/Concessions_Pernik/FeatureServer/0",
        "geometry_status": "repository-cache-mgu-pernik"
      }
    },
    {
      "geometry": {
        "type": "Polygon",
        "coordinates": [
          [
            [
              22.80368290676138,
              42.492384633433474
            ],
            [
              22.801947443798905,
              42.491970229674806
            ],
            [
              22.801873743871663,
              42.490799502358584
            ],
            [
              22.799688728862414,
              42.490337635174434
            ],
            [
              22.799320291061026,
              42.49069575028798
            ],
            [
              22.795245954402183,
              42.490628724556196
            ],
            [
              22.79202837027077,
              42.488810724910465
            ],
            [
              22.791108451943124,
              42.48835558175618
            ],
            [
              22.792753577281637,
              42.484376398112374
            ],
            [
              22.794147064476327,
              42.48490612084097
            ],
            [
              22.79462687989115,
              42.485583926777664
            ],
            [
              22.799414541139715,
              42.48729328788426
            ],
            [
              22.8004503217506,
              42.4871008004339
            ],
            [
              22.80499122555943,
              42.489195712167664
            ],
            [
              22.80368290676138,
              42.492384633433474
            ]
          ]
        ],
        "crs": null
      },
      "id": 18,
      "type": "Feature",
      "properties": {
        "вид_на_подземното_богатство": "Огнеупорни и керамични глини",
        "con_subject": "Концесия за добив на подземни богатства",
        "validityend": 2069798400000,
        "globalid": "{44497D7C-F6D5-4DE3-9C1F-316C721F1D1C}",
        "effectivedate": 965347200000,
        "област": "Перник",
        "община": "Земен, Ковачевци",
        "con_type": "Държавна",
        "concession_id": "D-000116",
        "ncr_url": "https://nkr.government.bg/ConcessionaireProcedures/ConcessionaireProcedureInfo/960d32cd-4931-4842-bfd1-652d7b3621cf",
        "SHAPE__Area": 465063.58832815,
        "решение_на__министерски____общи": "300/29.05.2000 г.",
        "идентификационен_____партиден__": "D-000116",
        "срок_на_концесията": "35 г.",
        "eu_threshold": "Не е приложимо",
        "концесионер": "\"Жабляно\" ЕАД, с. Жабляно",
        "находище": "Жабляно, у-к \"Южен\"",
        "validityendnote": null,
        "група_подземно_богатство": "Неметални полезни изкопаеми - индустриални минерали",
        "contractdate": 962582400000,
        "name": "Концесия за добив от находище \"Жабляно - участък южен\", област Перник, община Земен, Ковачевци, населено място Жабляно, Калище",
        "legalauthority": "Министерски съвет",
        "effective_date_note": null,
        "lastupdate": 1757289600000,
        "SHAPE__Length": 3286.5289874986893,
        "objectid": 18,
        "status": "Открита",
        "source_kind": "MGU-concession-contract-geometry",
        "source_url": "https://maps.mgu.bg/arcgis/rest/services/Hosted/Concessions_Pernik/FeatureServer/0",
        "geometry_status": "repository-cache-mgu-pernik"
      }
    },
    {
      "geometry": {
        "type": "Polygon",
        "coordinates": [
          [
            [
              23.12317796621177,
              42.49682511199963
            ],
            [
              23.123601163829655,
              42.49711517057417
            ],
            [
              23.1225035593364,
              42.49847711656392
            ],
            [
              23.122209517258227,
              42.498917469995234
            ],
            [
              23.121828482696152,
              42.49948903607014
            ],
            [
              23.120809087259126,
              42.501015008089944
            ],
            [
              23.120214827243228,
              42.50190560171146
            ],
            [
              23.120817714547933,
              42.502537325242095
            ],
            [
              23.120775386337034,
              42.502740672887455
            ],
            [
              23.120730227074414,
              42.50302863080152
            ],
            [
              23.119518337650202,
              42.50382308964507
            ],
            [
              23.11749932193959,
              42.50395016115731
            ],
            [
              23.116569525648597,
              42.504008038231625
            ],
            [
              23.116548629476725,
              42.5032922941974
            ],
            [
              23.11644654168373,
              42.50301385584496
            ],
            [
              23.11633832853156,
              42.502494133554926
            ],
            [
              23.11699064224677,
              42.50194130410225
            ],
            [
              23.11739009066654,
              42.50160386286499
            ],
            [
              23.11719017771208,
              42.50117572413223
            ],
            [
              23.11791947301833,
              42.500550165733955
            ],
            [
              23.117810362828084,
              42.50046885873006
            ],
            [
              23.118549619121243,
              42.49953725001431
            ],
            [
              23.120269136858592,
              42.4973721475638
            ],
            [
              23.12142831961009,
              42.49585915222138
            ],
            [
              23.12317796621177,
              42.49682511199963
            ]
          ]
        ],
        "crs": null
      },
      "id": 2,
      "type": "Feature",
      "properties": {
        "вид_на_подземното_богатство": "Доломити",
        "con_subject": "Концесия за добив на подземни богатства",
        "validityend": 2448921600000,
        "globalid": "{CC839549-1206-445D-9098-4E51193C4333}",
        "effectivedate": 1344470400000,
        "област": "Перник",
        "община": "Перник",
        "con_type": "Държавна",
        "concession_id": "D-000618",
        "ncr_url": "https://nkr.government.bg/ConcessionaireProcedures/ConcessionaireProcedureInfo/96c23d3f-dcd0-4581-94c7-47bbd34c8612",
        "SHAPE__Area": 229395.05337135,
        "решение_на__министерски____общи": "286/06.04.2012 г.",
        "идентификационен_____партиден__": "D-000618",
        "срок_на_концесията": "35 г.",
        "eu_threshold": "Не е приложимо",
        "концесионер": "\"Хидроминерал\" ООД, гр. София",
        "находище": "Студена, у-к \"Магстрой\"",
        "validityendnote": null,
        "група_подземно_богатство": "Строителни материали",
        "contractdate": 1343952000000,
        "name": "Концесия за добив от находище \"Студена\", участък \"Магстрой\", област Перник, община Перник",
        "legalauthority": "Министерски съвет",
        "effective_date_note": null,
        "lastupdate": 1757289600000,
        "SHAPE__Length": 2393.261902905512,
        "objectid": 2,
        "status": "Открита",
        "source_kind": "MGU-concession-contract-geometry",
        "source_url": "https://maps.mgu.bg/arcgis/rest/services/Hosted/Concessions_Pernik/FeatureServer/0",
        "geometry_status": "repository-cache-mgu-pernik"
      }
    },
    {
      "geometry": {
        "type": "Polygon",
        "coordinates": [
          [
            [
              23.120207568138188,
              42.51309711678276
            ],
            [
              23.12151967136594,
              42.51402568562783
            ],
            [
              23.122176581143474,
              42.514089850422025
            ],
            [
              23.12282668934312,
              42.51415337452942
            ],
            [
              23.122834842588247,
              42.514854043194674
            ],
            [
              23.120703104445383,
              42.515275980831674
            ],
            [
              23.120053790052026,
              42.51524891027807
            ],
            [
              23.11777261777929,
              42.51515375730728
            ],
            [
              23.117042005127388,
              42.514419502418455
            ],
            [
              23.116233516397433,
              42.51386364660936
            ],
            [
              23.1162120497845,
              42.51359613157651
            ],
            [
              23.117423529130463,
              42.51288406801898
            ],
            [
              23.117990440741245,
              42.51255120606399
            ],
            [
              23.118518422008805,
              42.512474536627145
            ],
            [
              23.118804145780235,
              42.51264848915363
            ],
            [
              23.119379297885647,
              42.51242708438405
            ],
            [
              23.120207568138188,
              42.51309711678276
            ]
          ]
        ],
        "crs": null
      },
      "id": 16,
      "type": "Feature",
      "properties": {
        "вид_на_подземното_богатство": "Доломити и варовици",
        "con_subject": "Концесия за добив на подземни богатства",
        "validityend": 1642377600000,
        "globalid": "{50211041-C0E8-47AA-BC14-7662CDECF0E5}",
        "effectivedate": 853459200000,
        "област": "Перник",
        "община": "Перник",
        "con_type": "Държавна",
        "concession_id": "D-000274",
        "ncr_url": "https://nkr.government.bg/ConcessionaireProcedures/ConcessionaireProcedureInfo/a7834715-404e-4c9e-bcec-ae8fd06508b8",
        "SHAPE__Area": 106596.7890664,
        "решение_на__министерски____общи": "776/28.09.2004 г.",
        "идентификационен_____партиден__": "D-000274",
        "срок_на_концесията": "25 г.",
        "eu_threshold": "Не е приложимо",
        "концесионер": "“СК-13 Пътстрой” АД, гр. Перник",
        "находище": "Студена у-к ІІ",
        "validityendnote": null,
        "група_подземно_богатство": "Строителни материали",
        "contractdate": 1100044800000,
        "name": "Концесия за добив от находище \"Студена - участък II\", област Перник, община Перник, населено място Студена",
        "legalauthority": "Министерски съвет",
        "effective_date_note": null,
        "lastupdate": 1757289600000,
        "SHAPE__Length": 1395.0280560568287,
        "objectid": 16,
        "status": "Открита",
        "source_kind": "MGU-concession-contract-geometry",
        "source_url": "https://maps.mgu.bg/arcgis/rest/services/Hosted/Concessions_Pernik/FeatureServer/0",
        "geometry_status": "repository-cache-mgu-pernik"
      }
    },
    {
      "geometry": {
        "type": "Polygon",
        "coordinates": [
          [
            [
              23.127304253070463,
              42.51634813182568
            ],
            [
              23.127259769982636,
              42.515888720437324
            ],
            [
              23.12757572563647,
              42.51535072968176
            ],
            [
              23.127387577260663,
              42.514488280546644
            ],
            [
              23.127415853642308,
              42.51360963826642
            ],
            [
              23.12764662154677,
              42.51349021478298
            ],
            [
              23.128804020351996,
              42.51289178652563
            ],
            [
              23.13043454946393,
              42.51188374418435
            ],
            [
              23.130425531816403,
              42.511406958010376
            ],
            [
              23.130410427102618,
              42.5107461534425
            ],
            [
              23.130781769371115,
              42.51048565495298
            ],
            [
              23.133008695887327,
              42.510486517762914
            ],
            [
              23.133399396369175,
              42.51078403209301
            ],
            [
              23.133275445742647,
              42.512199876145736
            ],
            [
              23.13295743124453,
              42.51344807153013
            ],
            [
              23.13296044034815,
              42.51509127222611
            ],
            [
              23.132354930450543,
              42.51572730344936
            ],
            [
              23.13195266687218,
              42.51628805636396
            ],
            [
              23.1316667517522,
              42.51638258655635
            ],
            [
              23.129330983613723,
              42.51624035810102
            ],
            [
              23.127304253070463,
              42.51634813182568
            ]
          ]
        ],
        "crs": null
      },
      "id": 15,
      "type": "Feature",
      "properties": {
        "вид_на_подземното_богатство": "Варовици",
        "con_subject": "Концесия за добив на подземни богатства",
        "validityend": 1642377600000,
        "globalid": "{5A67E0D7-D1B0-497A-B646-EB2FCD4081D5}",
        "effectivedate": 853459200000,
        "област": "Перник",
        "община": "Перник",
        "con_type": "Държавна",
        "concession_id": "D-000279",
        "ncr_url": "https://nkr.government.bg/ConcessionaireProcedures/ConcessionaireProcedureInfo/aad34449-21ef-46bc-819c-aa23d219fd0d",
        "SHAPE__Area": 232265.55368077,
        "решение_на__министерски____общи": "728/09.09.2004 г.",
        "идентификационен_____партиден__": "D-000279",
        "срок_на_концесията": "25 г.",
        "eu_threshold": "Не е приложимо",
        "концесионер": "“СК-13 Пътстрой” АД, гр. Перник",
        "находище": "Студена-І",
        "validityendnote": null,
        "група_подземно_богатство": "Строителни материали",
        "contractdate": 1102464000000,
        "name": "Концесия за добив от находище \"Студена-1\", област Перник, община Перник, населено място Студена",
        "legalauthority": "Министерски съвет",
        "effective_date_note": null,
        "lastupdate": 1757289600000,
        "SHAPE__Length": 2045.703853576472,
        "objectid": 15,
        "status": "Открита",
        "source_kind": "MGU-concession-contract-geometry",
        "source_url": "https://maps.mgu.bg/arcgis/rest/services/Hosted/Concessions_Pernik/FeatureServer/0",
        "geometry_status": "repository-cache-mgu-pernik"
      }
    },
    {
      "geometry": {
        "type": "MultiPolygon",
        "coordinates": [
          [
            [
              [
                23.12074966715307,
                42.50818072731123
              ],
              [
                23.120683671233913,
                42.5087567081794
              ],
              [
                23.12037481421249,
                42.50897285882414
              ],
              [
                23.120012738227835,
                42.51040509736345
              ],
              [
                23.117213381701134,
                42.512093839704214
              ],
              [
                23.115499293721875,
                42.512772606692074
              ],
              [
                23.114673838996833,
                42.513875916131674
              ],
              [
                23.110948476411025,
                42.51624533166604
              ],
              [
                23.110585809208438,
                42.516251562915535
              ],
              [
                23.10790438187188,
                42.51490120683447
              ],
              [
                23.107708878223466,
                42.51457119715574
              ],
              [
                23.107536063974123,
                42.51334191020381
              ],
              [
                23.109882342765086,
                42.51254972374041
              ],
              [
                23.112133361728436,
                42.51156638216893
              ],
              [
                23.113727095612155,
                42.51011223831989
              ],
              [
                23.1130562902011,
                42.50943527860199
              ],
              [
                23.115566871275675,
                42.507070703546106
              ],
              [
                23.11693984434768,
                42.50645225331855
              ],
              [
                23.118266520776192,
                42.506862624065036
              ],
              [
                23.12176306903895,
                42.505374982185955
              ],
              [
                23.12253586692528,
                42.50532438640409
              ],
              [
                23.123340170148246,
                42.50504738062346
              ],
              [
                23.123406557389146,
                42.50516008102005
              ],
              [
                23.124069220236198,
                42.50576854110628
              ],
              [
                23.122571932490395,
                42.50671174449303
              ],
              [
                23.12074966715307,
                42.50818072731123
              ]
            ]
          ],
          [
            [
              [
                23.112740925727113,
                42.503969117031225
              ],
              [
                23.11472915045969,
                42.50568843408683
              ],
              [
                23.111563385274227,
                42.50792791062259
              ],
              [
                23.110260986890644,
                42.50977171274939
              ],
              [
                23.109129950765467,
                42.51114603384054
              ],
              [
                23.107390933634896,
                42.512423276165286
              ],
              [
                23.10553875597075,
                42.51295299142015
              ],
              [
                23.103930405027654,
                42.5109455861094
              ],
              [
                23.105336779981954,
                42.50756454126299
              ],
              [
                23.111425551202267,
                42.50350558916769
              ],
              [
                23.112740925727113,
                42.503969117031225
              ]
            ]
          ]
        ],
        "crs": null
      },
      "id": 6,
      "type": "Feature",
      "properties": {
        "вид_на_подземното_богатство": "Доломити",
        "con_subject": "Концесия за добив на подземни богатства",
        "validityend": 2010355200000,
        "globalid": "{03625321-6C25-4870-8226-09400F47CD38}",
        "effectivedate": 1221436800000,
        "област": "Перник",
        "община": "Перник, Радомир",
        "con_type": "Държавна",
        "concession_id": "D-000482",
        "ncr_url": "https://nkr.government.bg/ConcessionaireProcedures/ConcessionaireProcedureInfo/53017447-9606-4822-bd1a-822bcbd465b1",
        "SHAPE__Area": 992555.1703786,
        "решение_на__министерски____общи": "529/12.08.2008 г.",
        "идентификационен_____партиден__": "D-000482",
        "срок_на_концесията": "25 г.",
        "eu_threshold": "Не е приложимо",
        "концесионер": "\"Инфра експерт\" АД, гр. София",
        "находище": "Студена, у-к Хидростой 1",
        "validityendnote": null,
        "група_подземно_богатство": "Строителни материали",
        "contractdate": 1221436800000,
        "name": "Концесия за добив от находище \"Студена\", участък \"Хидрострой 1\", област Перник, община Перник, Радомир, населено място Друган, Старо село, Студена",
        "legalauthority": "Министерски съвет",
        "effective_date_note": null,
        "lastupdate": 1757289600000,
        "SHAPE__Length": 6830.081101162121,
        "objectid": 6,
        "status": "Открита",
        "source_kind": "MGU-concession-contract-geometry",
        "source_url": "https://maps.mgu.bg/arcgis/rest/services/Hosted/Concessions_Pernik/FeatureServer/0",
        "geometry_status": "repository-cache-mgu-pernik"
      }
    },
    {
      "geometry": {
        "type": "Polygon",
        "coordinates": [
          [
            [
              23.057126542049122,
              42.66220690701052
            ],
            [
              22.931385573607802,
              42.66066404573552
            ],
            [
              22.931975886332058,
              42.61592592636318
            ],
            [
              22.95498757344282,
              42.611203380481484
            ],
            [
              22.95747549445973,
              42.61069247909136
            ],
            [
              22.97448690652236,
              42.617871007414664
            ],
            [
              23.00176666808085,
              42.623131123139245
            ],
            [
              23.007937232140442,
              42.60405970539779
            ],
            [
              22.99602872385448,
              42.60267532420772
            ],
            [
              22.973929962374022,
              42.59493128444707
            ],
            [
              22.978237079633146,
              42.58883531373035
            ],
            [
              23.17632483137687,
              42.558814816591884
            ],
            [
              23.179768380697983,
              42.581957626769416
            ],
            [
              23.119296028058795,
              42.64411092246861
            ],
            [
              23.057126542049122,
              42.66220690701052
            ]
          ],
          [
            [
              23.02359435753248,
              42.6412121912803
            ],
            [
              23.02843797123772,
              42.64662992609236
            ],
            [
              23.03332655257245,
              42.644845943781945
            ],
            [
              23.030932260223953,
              42.63763626770397
            ],
            [
              23.02359435753248,
              42.6412121912803
            ]
          ],
          [
            [
              23.061626841922756,
              42.64295658403515
            ],
            [
              23.06198906605435,
              42.643587848180246
            ],
            [
              23.06479453488858,
              42.643416448040014
            ],
            [
              23.064799094411295,
              42.64260627572917
            ],
            [
              23.061626841922756,
              42.64295658403515
            ]
          ],
          [
            [
              23.10832150441694,
              42.64417193116455
            ],
            [
              23.11749244745859,
              42.63879502610259
            ],
            [
              23.115075699198382,
              42.634287668300544
            ],
            [
              23.104685935395477,
              42.63966107761126
            ],
            [
              23.10832150441694,
              42.64417193116455
            ]
          ],
          [
            [
              23.03852076127686,
              42.63280040784322
            ],
            [
              23.038434503331136,
              42.62690374732878
            ],
            [
              23.038808079280937,
              42.625599678833105
            ],
            [
              23.041377665088678,
              42.623987736386816
            ],
            [
              23.044934115299377,
              42.62038046975489
            ],
            [
              23.043677361652666,
              42.61960401983143
            ],
            [
              23.047496318378847,
              42.61995664363727
            ],
            [
              23.047881080283823,
              42.61671711519046
            ],
            [
              23.051796490641216,
              42.614119031702266
            ],
            [
              23.056011811729405,
              42.62286442310282
            ],
            [
              23.06272101280634,
              42.62198511677843
            ],
            [
              23.056914762384576,
              42.61422523047938
            ],
            [
              23.05425122103162,
              42.611156115074195
            ],
            [
              23.054266852582778,
              42.60845552423008
            ],
            [
              23.048160363623083,
              42.61068659053578
            ],
            [
              23.05034820764987,
              42.611683835329174
            ],
            [
              23.047901244854028,
              42.613296369818094
            ],
            [
              23.045690963918535,
              42.61607990287144
            ],
            [
              23.043677225971653,
              42.61960393495991
            ],
            [
              23.041594511010608,
              42.618317111871995
            ],
            [
              23.037250165975625,
              42.62118349806456
            ],
            [
              23.03502485772814,
              42.6263073162329
            ],
            [
              23.035224197067006,
              42.63359968275593
            ],
            [
              23.03852076127686,
              42.63280040784322
            ]
          ],
          [
            [
              23.04365120960109,
              42.61067200516015
            ],
            [
              23.04206690921112,
              42.61066683856089
            ],
            [
              23.041451079147883,
              42.61174507977963
            ],
            [
              23.042668179378275,
              42.61201912066245
            ],
            [
              23.04365120960109,
              42.61067200516015
            ]
          ],
          [
            [
              23.042035649935997,
              42.615887978577334
            ],
            [
              23.042287485953427,
              42.614538476338495
            ],
            [
              23.040581212282444,
              42.61453289595461
            ],
            [
              23.04081685928931,
              42.61588398355323
            ],
            [
              23.042035649935997,
              42.615887978577334
            ]
          ],
          [
            [
              23.03872587949227,
              42.619027863213745
            ],
            [
              23.034946889883763,
              42.61910536791408
            ],
            [
              23.031160674921168,
              42.620353000138515
            ],
            [
              23.033959691969667,
              42.621082537353765
            ],
            [
              23.03688230825596,
              42.621542362122156
            ],
            [
              23.03872587949227,
              42.619027863213745
            ]
          ],
          [
            [
              23.058263476228216,
              42.5915440262821
            ],
            [
              23.057392826621022,
              42.594647050172995
            ],
            [
              23.05483265823067,
              42.59490905650541
            ],
            [
              23.05299174482285,
              42.59719878871577
            ],
            [
              23.053199880072476,
              42.603320918813694
            ],
            [
              23.058803661872602,
              42.6036086119105
            ],
            [
              23.066491145568314,
              42.601741915062284
            ],
            [
              23.071742692339996,
              42.599597320214656
            ],
            [
              23.074653761916288,
              42.602036627516455
            ],
            [
              23.076508469617426,
              42.59709096842441
            ],
            [
              23.081429468690278,
              42.58828334980779
            ],
            [
              23.06985401244448,
              42.58860897402826
            ],
            [
              23.068714526478864,
              42.59634738575729
            ],
            [
              23.063354001092954,
              42.59624096377918
            ],
            [
              23.06129190927386,
              42.59461419549123
            ],
            [
              23.06423630371962,
              42.5910224214483
            ],
            [
              23.06168499461922,
              42.58975424099226
            ],
            [
              23.058641848801997,
              42.58929466238261
            ],
            [
              23.058263476228216,
              42.5915440262821
            ]
          ]
        ],
        "crs": null
      },
      "id": 12,
      "type": "Feature",
      "properties": {
        "вид_на_подземното_богатство": "Кафяви въглища",
        "con_subject": "Концесия за добив на подземни богатства",
        "validityend": 1881273600000,
        "globalid": "{083D575B-E4CE-452B-93FC-B50419924211}",
        "effectivedate": 1092355200000,
        "област": "Перник, София /столица/",
        "община": "Перник, Брезник, Столична",
        "con_type": "Държавна",
        "concession_id": "D-000325",
        "ncr_url": "https://nkr.government.bg/ConcessionaireProcedures/ConcessionaireProcedureInfo/b4adede1-72d1-493a-85e2-c529e0451267",
        "SHAPE__Area": 140050533.49692327,
        "решение_на__министерски____общи": "780/12.11.2003 г.",
        "идентификационен_____партиден__": "D-000325",
        "срок_на_концесията": "10 г. + 15 г.",
        "eu_threshold": "Не е приложимо",
        "концесионер": "\"Мин Индъстри\" ЕООД, гр. Перник",
        "находище": "Пернишки въглищен басейн",
        "validityendnote": null,
        "група_подземно_богатство": "Твърди горива",
        "contractdate": 1071705600000,
        "name": "Концесия за добив от находище кафяви въглища от \"Пернишки въглищен басейн\", област Перник, община Перник",
        "legalauthority": "Министерски съвет",
        "effective_date_note": null,
        "lastupdate": 1757289600000,
        "SHAPE__Length": 88696.82341827065,
        "objectid": 12,
        "status": "Открита",
        "source_kind": "MGU-concession-contract-geometry",
        "source_url": "https://maps.mgu.bg/arcgis/rest/services/Hosted/Concessions_Pernik/FeatureServer/0",
        "geometry_status": "repository-cache-mgu-pernik"
      }
    }
  ]
}
