{
  "type": "FeatureCollection",
  "schema": "bgwf-official-concessions-baseline-v1",
  "generatedAt": "2026-10-05T08:59:31Z",
  "geometryCrs": "EPSG:4326",
  "runtimeDependency": false,
  "featureCount": 11,
  "inventoryRecordCount": 530,
  "extractedRegisterCount": 48,
  "extractedPublicationReadyCount": 11,
  "publicationGate": {
    "officialCoordinateRegisterRequired": true,
    "areaTolerancePct": 2,
    "approximateGeometryAllowed": false
  },
  "features": [
    {
      "type": "Feature",
      "properties": {
        "concession_id": "216-125",
        "name": "Хитрино - 3",
        "official_area_dka": 117.5,
        "transformed_area_dka": 117.505,
        "area_qa_error_pct": 0.0043,
        "source_coordinate_system": "BGS2005",
        "source_zone": null,
        "source_point_count": 6,
        "source_contour_count": 1,
        "resource": "Строителни материали",
        "municipality": "Хитрино",
        "province": "Шумен",
        "source_url": "https://nkr.government.bg/File/Download/f5a3513c-71a1-4212-921b-c06b134fe927",
        "source_attachment_sha256": "83b321214cab885432a95cb3e03477882d521c822499383bcfa745e0e4197fd6",
        "source_archive_path": "source-archive/concessions/nkr-attachments/83b321214cab885432a95cb3e03477882d521c822499383bcfa745e0e4197fd6.doc",
        "source_kind": "official-coordinate-register",
        "geometry_status": "repository-baseline-official-register-transformed",
        "transformation": "official BGS2005/CCS2005 cadastral coordinates -> WGS84",
        "transformation_note": "Official BGS2005 source coordinates; map conversion to WGS84 is informational and does not replace the legal coordinate register."
      },
      "geometry": {
        "type": "Polygon",
        "coordinates": [
          [
            [
              26.94784183,
              43.4305615
            ],
            [
              26.95024791,
              43.42887958
            ],
            [
              26.94936305,
              43.42633859
            ],
            [
              26.95003693,
              43.42621314
            ],
            [
              26.94945983,
              43.42415261
            ],
            [
              26.94642792,
              43.42742126
            ],
            [
              26.94784183,
              43.4305615
            ]
          ]
        ]
      }
    },
    {
      "type": "Feature",
      "properties": {
        "concession_id": "216-128",
        "name": "Цар Асен - 2",
        "official_area_dka": 646.4,
        "transformed_area_dka": 646.399,
        "area_qa_error_pct": 0.0002,
        "source_coordinate_system": "BGS2005",
        "source_zone": null,
        "source_point_count": 99,
        "source_contour_count": 1,
        "resource": "Метални полезни изкопаеми",
        "municipality": "Пазарджик",
        "province": "Пазарджик",
        "source_url": "https://nkr.government.bg/File/Download/48064150-ccbe-44ea-b862-c302ba8f56d4",
        "source_attachment_sha256": "f1711c1746dac2bb54203debcd22ace90096b1d6f98397298c66d2ed890653d0",
        "source_archive_path": "source-archive/concessions/nkr-attachments/f1711c1746dac2bb54203debcd22ace90096b1d6f98397298c66d2ed890653d0.pdf",
        "source_kind": "official-coordinate-register",
        "geometry_status": "repository-baseline-official-register-transformed",
        "transformation": "official BGS2005/CCS2005 cadastral coordinates -> WGS84",
        "transformation_note": "Official BGS2005 source coordinates; map conversion to WGS84 is informational and does not replace the legal coordinate register."
      },
      "geometry": {
        "type": "Polygon",
        "coordinates": [
          [
            [
              24.33943233,
              42.3577124
            ],
            [
              24.34041546,
              42.35770451
            ],
            [
              24.34144294,
              42.35740816
            ],
            [
              24.34162132,
              42.35715464
            ],
            [
              24.34241632,
              42.3567341
            ],
            [
              24.34331529,
              42.3559526
            ],
            [
              24.34323985,
              42.35494485
            ],
            [
              24.3438831,
              42.35493967
            ],
            [
              24.34720744,
              42.35483181
            ],
            [
              24.34791982,
              42.35457396
            ],
            [
              24.34801638,
              42.35453716
            ],
            [
              24.34827894,
              42.35505721
            ],
            [
              24.34787462,
              42.35562768
            ],
            [
              24.3494762,
              42.35722626
            ],
            [
              24.35112812,
              42.35647461
            ],
            [
              24.35172927,
              42.35608259
            ],
            [
              24.35236054,
              42.35608646
            ],
            [
              24.35314745,
              42.35594501
            ],
            [
              24.35485785,
              42.35504877
            ],
            [
              24.35582999,
              42.35430257
            ],
            [
              24.35638344,
              42.35315466
            ],
            [
              24.35716443,
              42.3526171
            ],
            [
              24.35676483,
              42.3518641
            ],
            [
              24.35713517,
              42.35146493
            ],
            [
              24.35769688,
              42.35087514
            ],
            [
              24.35729331,
              42.35067136
            ],
            [
              24.35674374,
              42.35126107
            ],
            [
              24.35698833,
              42.35138511
            ],
            [
              24.35655825,
              42.35184778
            ],
            [
              24.35694544,
              42.35258288
            ],
            [
              24.35622461,
              42.35308394
            ],
            [
              24.355671,
              42.35422285
            ],
            [
              24.35472288,
              42.35495083
            ],
            [
              24.35467057,
              42.35142204
            ],
            [
              24.35272877,
              42.35143785
            ],
            [
              24.3482011,
              42.35306816
            ],
            [
              24.34873692,
              42.35236157
            ],
            [
              24.34841938,
              42.3522291
            ],
            [
              24.34788371,
              42.35294468
            ],
            [
              24.34773149,
              42.35332404
            ],
            [
              24.34783313,
              42.35445761
            ],
            [
              24.34716905,
              42.35469707
            ],
            [
              24.34401464,
              42.35480356
            ],
            [
              24.34346571,
              42.35379064
            ],
            [
              24.34278949,
              42.35320188
            ],
            [
              24.34188467,
              42.35275
            ],
            [
              24.34015918,
              42.35261982
            ],
            [
              24.33987865,
              42.35169475
            ],
            [
              24.33899073,
              42.35156683
            ],
            [
              24.33876408,
              42.35017315
            ],
            [
              24.33800709,
              42.34819854
            ],
            [
              24.33679244,
              42.34729895
            ],
            [
              24.33569423,
              42.34689358
            ],
            [
              24.3353059,
              42.34689668
            ],
            [
              24.33473005,
              42.34736044
            ],
            [
              24.33440866,
              42.34779516
            ],
            [
              24.33436326,
              42.34801159
            ],
            [
              24.33404589,
              42.34872537
            ],
            [
              24.33401327,
              42.34898671
            ],
            [
              24.33403884,
              42.34991383
            ],
            [
              24.33452142,
              42.35054921
            ],
            [
              24.33361733,
              42.35097956
            ],
            [
              24.33388655,
              42.35113046
            ],
            [
              24.33426369,
              42.35119048
            ],
            [
              24.33445447,
              42.35095487
            ],
            [
              24.33458601,
              42.35081878
            ],
            [
              24.33510343,
              42.35050854
            ],
            [
              24.33557007,
              42.35004566
            ],
            [
              24.33588326,
              42.3498811
            ],
            [
              24.33624721,
              42.34986919
            ],
            [
              24.33700641,
              42.35033128
            ],
            [
              24.33706061,
              42.35071798
            ],
            [
              24.33686517,
              42.3514668
            ],
            [
              24.33553631,
              42.35190057
            ],
            [
              24.33615046,
              42.35239984
            ],
            [
              24.33699311,
              42.35275322
            ],
            [
              24.33784189,
              42.35269241
            ],
            [
              24.33869951,
              42.35240645
            ],
            [
              24.33895084,
              42.35216135
            ],
            [
              24.33901763,
              42.35174667
            ],
            [
              24.33901697,
              42.35170165
            ],
            [
              24.33972258,
              42.35181304
            ],
            [
              24.34001525,
              42.35273801
            ],
            [
              24.34182596,
              42.35288552
            ],
            [
              24.34266958,
              42.35330188
            ],
            [
              24.34330899,
              42.35386392
            ],
            [
              24.34382044,
              42.35480513
            ],
            [
              24.34322573,
              42.35480992
            ],
            [
              24.34285043,
              42.35404768
            ],
            [
              24.34207777,
              42.35350471
            ],
            [
              24.34134537,
              42.3532225
            ],
            [
              24.34061599,
              42.35314733
            ],
            [
              24.33991337,
              42.353243
            ],
            [
              24.3387535,
              42.35361243
            ],
            [
              24.33783129,
              42.35446611
            ],
            [
              24.33718938,
              42.35539856
            ],
            [
              24.33705133,
              42.35592185
            ],
            [
              24.33733053,
              42.35675691
            ],
            [
              24.3381037,
              42.35733591
            ],
            [
              24.33943233,
              42.3577124
            ]
          ]
        ]
      }
    },
    {
      "type": "Feature",
      "properties": {
        "concession_id": "216-223",
        "name": "Бешовица",
        "official_area_dka": 246.3,
        "transformed_area_dka": 246.312,
        "area_qa_error_pct": 0.0047,
        "source_coordinate_system": "BGS2005",
        "source_zone": null,
        "source_point_count": 14,
        "source_contour_count": 1,
        "resource": "Скално-облицовъчни материали",
        "municipality": "Роман",
        "province": "Враца",
        "source_url": "https://nkr.government.bg/File/Download/63231b75-fb47-475e-847b-b70af7f8c65b",
        "source_attachment_sha256": "22d03262fbd78c67c83f87bfb48070e5fb8efd9f2274f5d58bb31121fc6ceec1",
        "source_archive_path": "source-archive/concessions/nkr-attachments/22d03262fbd78c67c83f87bfb48070e5fb8efd9f2274f5d58bb31121fc6ceec1.doc",
        "source_kind": "official-coordinate-register",
        "geometry_status": "repository-baseline-official-register-transformed",
        "transformation": "official BGS2005/CCS2005 cadastral coordinates -> WGS84",
        "transformation_note": "Official BGS2005 source coordinates; map conversion to WGS84 is informational and does not replace the legal coordinate register."
      },
      "geometry": {
        "type": "Polygon",
        "coordinates": [
          [
            [
              23.88795965,
              43.17736804
            ],
            [
              23.89231464,
              43.17688855
            ],
            [
              23.89253537,
              43.17606334
            ],
            [
              23.89360792,
              43.17313155
            ],
            [
              23.89387606,
              43.17209002
            ],
            [
              23.8942832,
              43.17024194
            ],
            [
              23.89399274,
              43.16986968
            ],
            [
              23.89262227,
              43.17058797
            ],
            [
              23.8918279,
              43.17147812
            ],
            [
              23.89119787,
              43.17200773
            ],
            [
              23.8903954,
              43.17202536
            ],
            [
              23.8887201,
              43.17348751
            ],
            [
              23.88955313,
              43.17385565
            ],
            [
              23.88693946,
              43.17577825
            ],
            [
              23.88795965,
              43.17736804
            ]
          ]
        ]
      }
    },
    {
      "type": "Feature",
      "properties": {
        "concession_id": "216-261",
        "name": "Янаклъка",
        "official_area_dka": 130.2,
        "transformed_area_dka": 130.248,
        "area_qa_error_pct": 0.037,
        "source_coordinate_system": "BGS2005",
        "source_zone": null,
        "source_point_count": 14,
        "source_contour_count": 1,
        "resource": "Строителни материали",
        "municipality": "Димитровград",
        "province": "Хасково",
        "source_url": "https://nkr.government.bg/File/Download/1814d064-15d3-4662-87d2-ce4f3b852931",
        "source_attachment_sha256": "fa476b17c92e84b6bbe0f48e392d5b5bb45251c436f3da3317c9844f640c2aae",
        "source_archive_path": "source-archive/concessions/nkr-attachments/fa476b17c92e84b6bbe0f48e392d5b5bb45251c436f3da3317c9844f640c2aae.doc",
        "source_kind": "official-coordinate-register",
        "geometry_status": "repository-baseline-official-register-transformed",
        "transformation": "official BGS2005/CCS2005 cadastral coordinates -> WGS84",
        "transformation_note": "Official BGS2005 source coordinates; map conversion to WGS84 is informational and does not replace the legal coordinate register."
      },
      "geometry": {
        "type": "Polygon",
        "coordinates": [
          [
            [
              25.53733883,
              42.00509936
            ],
            [
              25.53917076,
              42.00441091
            ],
            [
              25.54177175,
              42.00402555
            ],
            [
              25.54329267,
              42.00404569
            ],
            [
              25.54316859,
              42.00617856
            ],
            [
              25.54501427,
              42.00619225
            ],
            [
              25.54503027,
              42.00494081
            ],
            [
              25.54504063,
              42.00422957
            ],
            [
              25.54385746,
              42.00387801
            ],
            [
              25.54097081,
              42.0030184
            ],
            [
              25.5382943,
              42.00222256
            ],
            [
              25.53660054,
              42.00171805
            ],
            [
              25.53680992,
              42.00267771
            ],
            [
              25.53707255,
              42.00387863
            ],
            [
              25.53733883,
              42.00509936
            ]
          ]
        ]
      }
    },
    {
      "type": "Feature",
      "properties": {
        "concession_id": "216-306",
        "name": "Делчевото - 2, у-к \"Делчевото - 2 юг\"",
        "official_area_dka": 65.2,
        "transformed_area_dka": 65.153,
        "area_qa_error_pct": 0.0722,
        "source_coordinate_system": "BGS2005",
        "source_zone": null,
        "source_point_count": 18,
        "source_contour_count": 1,
        "resource": "Неметални полезни изкопаеми - индустриални минерали",
        "municipality": "Асеновград",
        "province": "Пловдив",
        "source_url": "https://nkr.government.bg/File/Download/be5f75f1-c008-490a-a242-40ccf0c230e0",
        "source_attachment_sha256": "881984c6da3afd062f749f41ac673f2e11e4f076422c13ad92dc0e6041c1bf1d",
        "source_archive_path": "source-archive/concessions/nkr-attachments/881984c6da3afd062f749f41ac673f2e11e4f076422c13ad92dc0e6041c1bf1d.pdf",
        "source_kind": "official-coordinate-register",
        "geometry_status": "repository-baseline-official-register-transformed",
        "transformation": "official BGS2005/CCS2005 cadastral coordinates -> WGS84",
        "transformation_note": "Official BGS2005 source coordinates; map conversion to WGS84 is informational and does not replace the legal coordinate register."
      },
      "geometry": {
        "type": "Polygon",
        "coordinates": [
          [
            [
              24.93897786,
              41.92656547
            ],
            [
              24.93938802,
              41.92667194
            ],
            [
              24.93977589,
              41.92684673
            ],
            [
              24.94070415,
              41.92658212
            ],
            [
              24.94168588,
              41.926677
            ],
            [
              24.94212481,
              41.92680341
            ],
            [
              24.94270314,
              41.92698182
            ],
            [
              24.94326627,
              41.92724298
            ],
            [
              24.94360956,
              41.92727888
            ],
            [
              24.94395205,
              41.92740481
            ],
            [
              24.94416827,
              41.927495
            ],
            [
              24.94485655,
              41.92764783
            ],
            [
              24.94525996,
              41.92770203
            ],
            [
              24.94528252,
              41.92732941
            ],
            [
              24.94679012,
              41.92754026
            ],
            [
              24.94419095,
              41.92587813
            ],
            [
              24.94037356,
              41.92592955
            ],
            [
              24.93896285,
              41.92594778
            ],
            [
              24.93897786,
              41.92656547
            ]
          ]
        ]
      }
    },
    {
      "type": "Feature",
      "properties": {
        "concession_id": "216-379",
        "name": "Кралево-2",
        "official_area_dka": 174.9,
        "transformed_area_dka": 174.892,
        "area_qa_error_pct": 0.0045,
        "source_coordinate_system": "BGS2005",
        "source_zone": null,
        "source_point_count": 16,
        "source_contour_count": 1,
        "resource": "Строителни материали",
        "municipality": "Търговище",
        "province": "Търговище",
        "source_url": "https://nkr.government.bg/File/Download/4a563805-fa49-4446-b5ec-900af15e3509",
        "source_attachment_sha256": "6dc13a0f208e7cb8571c494490277f909351909385ddad95d57c240e0fa755ea",
        "source_archive_path": "source-archive/concessions/nkr-attachments/6dc13a0f208e7cb8571c494490277f909351909385ddad95d57c240e0fa755ea.docx",
        "source_kind": "official-coordinate-register",
        "geometry_status": "repository-baseline-official-register-transformed",
        "transformation": "official BGS2005/CCS2005 cadastral coordinates -> WGS84",
        "transformation_note": "Official BGS2005 source coordinates; map conversion to WGS84 is informational and does not replace the legal coordinate register."
      },
      "geometry": {
        "type": "Polygon",
        "coordinates": [
          [
            [
              26.68468368,
              43.17247712
            ],
            [
              26.68528088,
              43.1725115
            ],
            [
              26.68555805,
              43.17176326
            ],
            [
              26.68598566,
              43.17135646
            ],
            [
              26.68557543,
              43.17080883
            ],
            [
              26.6866817,
              43.17077316
            ],
            [
              26.68760904,
              43.170643
            ],
            [
              26.69228292,
              43.16988185
            ],
            [
              26.69406727,
              43.16846535
            ],
            [
              26.69415691,
              43.1683942
            ],
            [
              26.69193222,
              43.16776631
            ],
            [
              26.68953138,
              43.16801703
            ],
            [
              26.68658756,
              43.16849383
            ],
            [
              26.68520298,
              43.16850895
            ],
            [
              26.68532692,
              43.16965007
            ],
            [
              26.68478792,
              43.17149749
            ],
            [
              26.68468368,
              43.17247712
            ]
          ]
        ]
      }
    },
    {
      "type": "Feature",
      "properties": {
        "concession_id": "216-406",
        "name": "Карлуково",
        "official_area_dka": 212.1,
        "transformed_area_dka": 212.129,
        "area_qa_error_pct": 0.0138,
        "source_coordinate_system": "BGS2005",
        "source_zone": null,
        "source_point_count": 30,
        "source_contour_count": 1,
        "resource": "Строителни материали",
        "municipality": "Луковит",
        "province": "Ловеч",
        "source_url": "https://nkr.government.bg/File/Download/225b2c5a-fafc-45a8-877d-e9200b718969",
        "source_attachment_sha256": "3090d9dace9edbdff143d03c271c27cc4e2a79bf8671487c190add3437111eae",
        "source_archive_path": "source-archive/concessions/nkr-attachments/3090d9dace9edbdff143d03c271c27cc4e2a79bf8671487c190add3437111eae.docx",
        "source_kind": "official-coordinate-register",
        "geometry_status": "repository-baseline-official-register-transformed",
        "transformation": "official BGS2005/CCS2005 cadastral coordinates -> WGS84",
        "transformation_note": "Official BGS2005 source coordinates; map conversion to WGS84 is informational and does not replace the legal coordinate register."
      },
      "geometry": {
        "type": "Polygon",
        "coordinates": [
          [
            [
              24.0750511,
              43.18624303
            ],
            [
              24.0754982,
              43.18611441
            ],
            [
              24.07708908,
              43.18835678
            ],
            [
              24.07985198,
              43.18730505
            ],
            [
              24.0775382,
              43.18412834
            ],
            [
              24.07740665,
              43.18417803
            ],
            [
              24.07586299,
              43.18170577
            ],
            [
              24.07539562,
              43.18089967
            ],
            [
              24.07456573,
              43.18098486
            ],
            [
              24.07438495,
              43.18103574
            ],
            [
              24.07423035,
              43.18107165
            ],
            [
              24.07397899,
              43.18119548
            ],
            [
              24.07387767,
              43.18121494
            ],
            [
              24.07320958,
              43.18137864
            ],
            [
              24.07316501,
              43.18139069
            ],
            [
              24.07311789,
              43.18140721
            ],
            [
              24.07305948,
              43.1814326
            ],
            [
              24.07299472,
              43.18146691
            ],
            [
              24.07293098,
              43.18151024
            ],
            [
              24.07231186,
              43.18200404
            ],
            [
              24.07233652,
              43.18205476
            ],
            [
              24.07235047,
              43.18209004
            ],
            [
              24.07238889,
              43.18213103
            ],
            [
              24.07242368,
              43.18216927
            ],
            [
              24.07256647,
              43.18232588
            ],
            [
              24.07268284,
              43.18250737
            ],
            [
              24.07313788,
              43.18256701
            ],
            [
              24.0730877,
              43.18298232
            ],
            [
              24.07352525,
              43.18332082
            ],
            [
              24.07454133,
              43.1850871
            ],
            [
              24.0750511,
              43.18624303
            ]
          ]
        ]
      }
    },
    {
      "type": "Feature",
      "properties": {
        "concession_id": "D-000016",
        "name": "Асарел — обща концесионна граница по Решение №684/13.09.2011",
        "official_area_dka": 17356.4,
        "transformed_area_dka": 17431.717,
        "area_qa_error_pct": 0.4339,
        "source_coordinate_system": "КС 1970",
        "source_zone": "K9",
        "source_point_count": 40,
        "source_contour_count": 1,
        "resource": null,
        "municipality": null,
        "province": null,
        "source_url": "https://dv.parliament.bg/DVWeb/materiali.faces?idObj=2766",
        "source_attachment_sha256": null,
        "source_archive_path": null,
        "source_kind": "official-coordinate-register",
        "geometry_status": "repository-baseline-official-register-transformed",
        "transformation": "bojko108/transformations@2.0.0 BGS1970 grid -> BGS2005/CCS2005 -> WGS84",
        "transformation_note": "Grid model derived from AGCC official-engine control points; informational map geometry. Verify with official BGSTrans for legal/cadastral use."
      },
      "geometry": {
        "type": "Polygon",
        "coordinates": [
          [
            [
              24.12016851,
              42.55801473
            ],
            [
              24.14250825,
              42.557322
            ],
            [
              24.14687922,
              42.554952
            ],
            [
              24.15443355,
              42.55140202
            ],
            [
              24.1601895,
              42.54522898
            ],
            [
              24.1552102,
              42.53608913
            ],
            [
              24.1420066,
              42.53009342
            ],
            [
              24.13589268,
              42.5306295
            ],
            [
              24.1357426,
              42.53284236
            ],
            [
              24.13628996,
              42.53494285
            ],
            [
              24.12920591,
              42.53887316
            ],
            [
              24.12848075,
              42.53998675
            ],
            [
              24.12711295,
              42.54068386
            ],
            [
              24.12265411,
              42.54279349
            ],
            [
              24.12100688,
              42.54519011
            ],
            [
              24.11914858,
              42.54624481
            ],
            [
              24.1168186,
              42.54704127
            ],
            [
              24.11699134,
              42.54593112
            ],
            [
              24.11563061,
              42.5460789
            ],
            [
              24.11482182,
              42.54593525
            ],
            [
              24.11142463,
              42.54335492
            ],
            [
              24.10819765,
              42.54117317
            ],
            [
              24.10625176,
              42.53644678
            ],
            [
              24.10357449,
              42.53294005
            ],
            [
              24.08666068,
              42.53577609
            ],
            [
              24.08142925,
              42.56195388
            ],
            [
              24.07693965,
              42.5638557
            ],
            [
              24.07614172,
              42.56896102
            ],
            [
              24.08042431,
              42.57200635
            ],
            [
              24.08354045,
              42.57228641
            ],
            [
              24.0846006,
              42.57256297
            ],
            [
              24.08611978,
              42.57190601
            ],
            [
              24.09222313,
              42.57247638
            ],
            [
              24.09788508,
              42.57129896
            ],
            [
              24.10024962,
              42.57021552
            ],
            [
              24.10138436,
              42.56928065
            ],
            [
              24.1043506,
              42.56888495
            ],
            [
              24.10891603,
              42.56705362
            ],
            [
              24.11497108,
              42.56196053
            ],
            [
              24.11885288,
              42.55961257
            ],
            [
              24.12016851,
              42.55801473
            ]
          ]
        ]
      }
    },
    {
      "type": "Feature",
      "properties": {
        "concession_id": "D-000610",
        "name": "Хан Крум / Ада тепе — концесионна площ",
        "official_area_dka": 13700,
        "transformed_area_dka": 13700.941,
        "area_qa_error_pct": 0.0069,
        "source_coordinate_system": "КС 1970",
        "source_zone": "K5",
        "source_point_count": 14,
        "source_contour_count": 1,
        "resource": null,
        "municipality": null,
        "province": null,
        "source_url": "https://www.ciela.net/svobodna-zona-darjaven-vestnik/document/2135718405/issue/1531/reshenie-%E2%84%96-87-ot-11-fevruari-2011-g-za-predostavyane-na-kontsesiya-za-dobiv-na-podzemni-bogatstva-po-chl-2-al-1-t-1-ot-zakona-za-podzemnite-bogatstva---metalni-polezni-izkopaemi---zlatosadarzhashti-rudi-ot-nahodishte-",
        "source_attachment_sha256": null,
        "source_archive_path": null,
        "source_kind": "official-coordinate-register",
        "geometry_status": "repository-baseline-official-register-transformed",
        "transformation": "bojko108/transformations@2.0.0 BGS1970 grid -> BGS2005/CCS2005 -> WGS84",
        "transformation_note": "Grid model derived from AGCC official-engine control points; informational map geometry. Verify with official BGSTrans for legal/cadastral use."
      },
      "geometry": {
        "type": "Polygon",
        "coordinates": [
          [
            [
              25.607018,
              41.44188455
            ],
            [
              25.61551591,
              41.43791878
            ],
            [
              25.63819454,
              41.43804784
            ],
            [
              25.64437259,
              41.43995027
            ],
            [
              25.64436855,
              41.44575199
            ],
            [
              25.65866506,
              41.44586993
            ],
            [
              25.68270578,
              41.4337678
            ],
            [
              25.67885613,
              41.42367804
            ],
            [
              25.65021123,
              41.42141537
            ],
            [
              25.65295422,
              41.4033588
            ],
            [
              25.64839714,
              41.40179394
            ],
            [
              25.63884847,
              41.40698861
            ],
            [
              25.63866432,
              41.42251988
            ],
            [
              25.60703073,
              41.42798338
            ],
            [
              25.607018,
              41.44188455
            ]
          ]
        ]
      }
    },
    {
      "type": "Feature",
      "properties": {
        "concession_id": "D-000613",
        "name": "Шереметя, у-к \"Изток\"",
        "official_area_dka": 72.7,
        "transformed_area_dka": 72.685,
        "area_qa_error_pct": 0.0203,
        "source_coordinate_system": "BGS2005",
        "source_zone": null,
        "source_point_count": 8,
        "source_contour_count": 1,
        "resource": "Строителни материали",
        "municipality": "Велико Търново, Лясковец",
        "province": "Велико Търново",
        "source_url": "https://nkr.government.bg/File/Download/a2b68128-2cf3-4f2d-85e9-abbb09794bad",
        "source_attachment_sha256": "ecb9b80ec6641e6ec33799b2fedf209912faf9ab392b0b9985093794403ff67e",
        "source_archive_path": "source-archive/concessions/nkr-attachments/ecb9b80ec6641e6ec33799b2fedf209912faf9ab392b0b9985093794403ff67e.doc",
        "source_kind": "official-coordinate-register",
        "geometry_status": "repository-baseline-official-register-transformed",
        "transformation": "official BGS2005/CCS2005 cadastral coordinates -> WGS84",
        "transformation_note": "Official BGS2005 source coordinates; map conversion to WGS84 is informational and does not replace the legal coordinate register."
      },
      "geometry": {
        "type": "Polygon",
        "coordinates": [
          [
            [
              25.7112489,
              43.07294473
            ],
            [
              25.7137903,
              43.07285093
            ],
            [
              25.7149787,
              43.07208537
            ],
            [
              25.71560985,
              43.07138925
            ],
            [
              25.71496908,
              43.07108349
            ],
            [
              25.71239688,
              43.07076779
            ],
            [
              25.71092255,
              43.07049684
            ],
            [
              25.71086725,
              43.07120628
            ],
            [
              25.7112489,
              43.07294473
            ]
          ]
        ]
      }
    },
    {
      "type": "Feature",
      "properties": {
        "concession_id": "O-000794",
        "name": "Каменец",
        "official_area_dka": 82.1,
        "transformed_area_dka": 82.118,
        "area_qa_error_pct": 0.0215,
        "source_coordinate_system": "BGS2005",
        "source_zone": null,
        "source_point_count": 19,
        "source_contour_count": 1,
        "resource": "Строителни материали",
        "municipality": "Стралджа",
        "province": "Ямбол",
        "source_url": "https://nkr.government.bg/File/Download/edfa1165-4472-4ae6-b510-26f79850e279",
        "source_attachment_sha256": "6f9c842fd71e36fe965ea93fa45cc92c4bb1f29b32b70201c112d0e5cdcd3ad9",
        "source_archive_path": "source-archive/concessions/nkr-attachments/6f9c842fd71e36fe965ea93fa45cc92c4bb1f29b32b70201c112d0e5cdcd3ad9.pdf",
        "source_kind": "official-coordinate-register",
        "geometry_status": "repository-baseline-official-register-transformed",
        "transformation": "official BGS2005/CCS2005 cadastral coordinates -> WGS84",
        "transformation_note": "Official BGS2005 source coordinates; map conversion to WGS84 is informational and does not replace the legal coordinate register."
      },
      "geometry": {
        "type": "Polygon",
        "coordinates": [
          [
            [
              26.74788541,
              42.32906275
            ],
            [
              26.74809098,
              42.32933151
            ],
            [
              26.74815378,
              42.32937765
            ],
            [
              26.74820766,
              42.32940227
            ],
            [
              26.74838312,
              42.32943816
            ],
            [
              26.7484259,
              42.3294539
            ],
            [
              26.74972657,
              42.32877605
            ],
            [
              26.7508817,
              42.32962415
            ],
            [
              26.7516871,
              42.33021497
            ],
            [
              26.7526637,
              42.33093176
            ],
            [
              26.75178618,
              42.3311665
            ],
            [
              26.75406691,
              42.33210575
            ],
            [
              26.75529106,
              42.32960536
            ],
            [
              26.75296125,
              42.32924294
            ],
            [
              26.74986826,
              42.32876189
            ],
            [
              26.74978543,
              42.32874569
            ],
            [
              26.74856848,
              42.32850872
            ],
            [
              26.74844936,
              42.32855955
            ],
            [
              26.74808503,
              42.32884987
            ],
            [
              26.74788541,
              42.32906275
            ]
          ]
        ]
      }
    }
  ]
}
